1 30515U 99025AJD 18205.34313955 +.00000276 +00000-0 +18782-3 0  9992
2 30515 098.4809 033.8424 0528475 308.3499 172.8928 13.54851743567720
1 30516U 99025AJE 18205.55743036 +.00000655 +00000-0 +33537-3 0  9999
2 30516 098.9837 234.5886 0014928 147.7451 004.8930 14.19003449592993
1 30519U 99025AJH 18205.48830584 +.00000504 +00000-0 +65533-4 0  9994
2 30519 098.8640 209.8592 0162780 260.6812 097.5958 14.77586034615582
1 30520U 99025AJJ 18205.45735377 +.00000657 +00000-0 +10104-3 0  9999
2 30520 098.6822 117.8006 0161380 358.4495 060.7029 14.69163226611830
1 30521U 99025AJK 18205.60251361 +.00000216 +00000-0 +64542-4 0  9990
2 30521 098.9501 125.0173 0163872 048.7686 312.7495 14.46276797605049
1 30522U 99025AJL 18205.21893804 +.00000881 +00000-0 +23344-3 0  9994
2 30522 099.3961 302.1234 0073324 345.3720 044.3950 14.50203702604097
1 30523U 99025AJM 18204.93319506 +.00000028 +00000-0 +23140-4 0  9993
2 30523 098.5264 248.4756 0255119 103.4479 019.1794 14.24223903596591
1 30524U 99025AJN 18205.52331164 +.00000768 +00000-0 +76207-3 0  9996
2 30524 099.2853 056.7685 0248937 145.9003 215.8420 13.68363822571438
1 30525U 99025AJP 18204.97659233 +.00000234 +00000-0 +30026-3 0  9992
2 30525 098.5780 040.1401 0310161 102.1495 261.4566 13.52100387566476
1 30526U 99025AJQ 18205.45496688 +.00000195 +00000-0 +28954-3 0  9993
2 30526 099.4204 020.0833 0317296 141.5192 220.9033 13.45951678563274
1 30527U 99025AJR 18205.07673382 +.00000044 +00000-0 +11854-3 0  9994
2 30527 100.2647 253.8240 0426902 107.6158 287.3580 13.26175684555443
1 30528U 99025AJS 18204.85898182 +.00000065 +00000-0 +52729-4 0  9997
2 30528 098.2477 256.9494 0152587 065.3064 351.1636 14.09391070591170
1 30529U 99025AJT 18205.56702322 +.00000327 +00000-0 +36630-3 0  9990
2 30529 098.4599 064.6921 0245313 191.2770 197.6269 13.64859720571499
1 30530U 99025AJU 18205.54695525 +.00000094 +00000-0 +48301-4 0  9996
2 30530 098.7297 230.0135 0103998 205.2865 308.9815 14.33143072601118
1 30531U 99025AJV 18205.59117194 +.00001113 +00000-0 +57304-3 0  9998
2 30531 102.3304 339.9616 0052092 233.6845 188.9411 14.17973449591953
1 30532U 99025AJW 18205.39780610 +.00001487 +00000-0 +66859-3 0  9995
2 30532 096.9827 011.4421 0154474 283.5953 074.8063 14.17268472590452
1 30533U 99025AJX 18204.45653150 +.00000353 +00000-0 +17123-3 0  9991
2 30533 098.9054 263.3530 0137195 069.5570 055.6074 14.19667967593157
1 30538U 99025AKC 18205.41203303 +.00023390 +00000-0 +26630-3 0  9993
2 30538 099.1476 187.2644 0057121 243.1861 116.3542 15.60257053624031
1 30539U 99025AKD 18205.47922418 +.00000202 +00000-0 +67846-4 0  9997
2 30539 098.9348 032.5716 0141338 076.4988 285.1904 14.42886163603707
1 30540U 99025AKE 18203.97761868 +.00000617 +00000-0 +34621-3 0  9996
2 30540 098.9647 266.9226 0069016 207.7661 278.1800 14.13188503590230
1 30541U 99025AKF 18204.04508803 +.00000482 +00000-0 +27940-3 0  9990
2 30541 098.9172 243.3340 0019723 225.9917 133.9630 14.13488367591158
1 30542U 99025AKG 18205.54548017 -.00000044 +00000-0 +97405-6 0  9999
2 30542 099.1032 228.4997 0027243 317.7681 194.6510 14.05728509589999
1 30543U 99025AKH 18205.07121692 +.00000303 +00000-0 +22271-3 0  9997
2 30543 099.0534 230.8907 0072738 339.0079 036.5708 14.02064724586754
1 30545U 99025AKK 18205.45163648 +.00000045 +00000-0 +10817-3 0  9994
2 30545 098.9906 029.0720 0477199 049.2675 343.1807 13.19133828553402
1 30546U 99025AKL 18205.34438146 +.00000512 +00000-0 +10365-3 0  9998
2 30546 098.8908 154.0133 0144456 211.9740 300.8357 14.59999940609366
1 30547U 99025AKM 18205.24991194 +.00000158 +00000-0 +69606-4 0  9994
2 30547 098.6935 312.6282 0100342 236.7709 152.6375 14.33736854600244
1 30548U 99025AKN 18204.75458395 +.00000537 +00000-0 +31729-3 0  9996
2 30548 099.7213 188.3148 0081562 255.6220 231.3003 14.11082416588955
1 30549U 99025AKP 18204.20192333 +.00000560 +00000-0 +34521-3 0  9993
2 30549 098.4437 173.8058 0329548 146.7841 340.9339 13.84938582578307
1 30550U 99025AKQ 18205.54331312 +.00000575 +00000-0 +47376-3 0  9993
2 30550 099.1337 113.4438 0154932 068.2490 056.1330 13.87680316578645
1 30552U 99025AKS 18204.63331493 +.00000956 +00000-0 +46436-3 0  9993
2 30552 098.8975 264.1153 0022971 175.8262 338.4828 14.20603597591319
1 30553U 99025AKT 18205.59466307 +.00000746 +00000-0 +28502-3 0  9994
2 30553 099.1523 071.9209 0038138 178.6205 181.5090 14.33521066595832
1 30554U 99025AKU 18205.54911361 +.00001368 +00000-0 +42252-3 0  9994
2 30554 098.8187 303.7407 0032993 290.4352 191.3920 14.42719523597414
1 30555U 99025AKV 18205.07869976 +.00000270 +00000-0 +17762-3 0  9996
2 30555 098.9830 246.4970 0048399 001.2967 026.6424 14.09701196588303
1 30556U 99025AKW 18205.61588164 +.00000418 +00000-0 +31565-3 0  9995
2 30556 098.9674 259.0976 0064908 161.5623 358.1010 13.98613647585209
1 30557U 99025AKX 18205.44954913 +.00000685 +00000-0 +47712-3 0  9993
2 30557 099.1071 257.4077 0074682 167.4965 320.6172 14.00834930584703
1 30558U 99025AKY 18203.94107330 +.00000292 +00000-0 +49537-3 0  9991
2 30558 099.4562 191.5620 0443566 255.9970 127.1830 13.20083789550662
1 30560U 99025ALA 18205.54591552 +.00000049 +00000-0 +45267-4 0  9992
2 30560 098.7708 236.2668 0120326 010.0797 144.3116 14.14031721592185
1 30561U 99025ALB 18204.58418780 -.00000049 +00000-0 -31540-5 0  9999
2 30561 098.9070 235.0664 0062461 176.2696 335.6529 14.08518808589594
1 30562U 99025ALC 18205.10881905 +.00000350 +00000-0 +21827-3 0  9990
2 30562 098.9614 260.0267 0069209 008.5424 022.8453 14.10116264588693
1 30563U 99025ALD 18205.42966631 +.00001751 +00000-0 +32379-3 0  9996
2 30563 099.0893 187.3798 0064356 110.2030 041.2454 14.65591248605210
1 30564U 99025ALE 18204.83084078 +.00000028 +00000-0 +38303-4 0  9997
2 30564 099.0007 247.3183 0227337 065.7035 351.5862 13.99614046585183
1 30565U 99025ALF 18204.05309365 +.00000308 +00000-0 +23018-3 0  9998
2 30565 098.4584 237.5596 0163419 009.5010 019.4927 13.95121951581806
1 30566U 99025ALG 18205.37533214 +.00000292 +00000-0 +21738-3 0  9996
2 30566 099.1770 167.4189 0076804 077.2937 074.1063 14.01485664585032
1 30567U 99025ALH 18205.07150155 +.00000034 +00000-0 +44883-4 0  9994
2 30567 098.8662 237.2938 0111592 226.1327 152.8174 14.06250374588289
1 30568U 99025ALJ 18205.19269824 +.00000926 +00000-0 +45338-3 0  9997
2 30568 098.9361 279.0137 0028642 090.6426 289.5859 14.20166044591456
1 30569U 99025ALK 18205.58647860 +.00000875 +00000-0 +36279-3 0  9998
2 30569 098.8150 256.5067 0026626 152.7277 207.5309 14.28953234594601
1 30570U 99025ALL 18204.77714213 +.00000101 +00000-0 +81806-4 0  9996
2 30570 099.0155 232.4859 0035824 285.3655 136.6552 14.10382805589221
1 30571U 99025ALM 18205.53293792 +.00000157 +00000-0 +11734-3 0  9999
2 30571 099.0354 232.0081 0020017 270.5626 254.5989 14.08608711588843
1 30572U 99025ALN 18205.04360709 -.00000051 +00000-0 -33754-5 0  9992
2 30572 099.0810 228.2820 0024010 294.2815 085.6153 14.06910341588310
1 30573U 99025ALP 18204.42396711 +.00000912 +00000-0 +61682-3 0  9999
2 30573 099.1509 162.9848 0104558 174.4728 305.4506 14.00309844583144
1 30574U 99025ALQ 18205.57933437 +.00000672 +00000-0 +71643-3 0  9990
2 30574 099.3271 071.4257 0243128 168.8407 191.8266 13.65326859568529
1 30575U 99025ALR 18205.53431892 +.00000357 +00000-0 +15651-3 0  9992
2 30575 099.1799 096.5707 0063205 126.1815 354.5730 14.29125628595994
1 30576U 99025ALS 18205.56311799 +.00000993 +00000-0 +31623-3 0  9992
2 30576 099.0993 060.5541 0104236 165.9454 223.9075 14.39243587599875
1 30577U 99025ALT 18205.51906608 +.00000145 +00000-0 +11332-3 0  9991
2 30577 099.0644 232.9753 0029568 302.0678 218.3752 14.07251082588035
1 30578U 99025ALU 18204.88656962 +.00001051 +00000-0 +51459-3 0  9997
2 30578 099.0205 268.5394 0050998 271.7477 143.5874 14.19449856589592
1 30579U 99025ALV 18205.34801022 -.00000152 +00000-0 -68183-4 0  9995
2 30579 099.1078 233.7600 0055511 054.5993 012.9552 14.02843161586455
1 30593U 99025ALY 18205.31548628 +.00001262 +00000-0 +46876-3 0  9993
2 30593 102.3985 142.5616 0012141 170.6753 342.7863 14.35185552597578
1 30594U 99025ALZ 18205.30073755 -.00000013 +00000-0 +14194-4 0  9990
2 30594 098.9869 318.3319 0198829 027.8800 333.2860 14.15316949594200
1 30596U 99025AMB 18205.56649486 +.00000054 +00000-0 +29459-4 0  9994
2 30596 098.5677 238.4870 0264150 345.3460 167.0211 14.29072065600248
1 30597U 99025AMC 18204.28705199 +.00001309 +00000-0 +47445-3 0  9995
2 30597 098.9386 324.4096 0128857 247.5545 111.1947 14.30689639596362
1 30599U 99025AME 18205.58664886 +.00000097 +00000-0 +48340-4 0  9997
2 30599 098.8658 244.2917 0331341 126.9637 236.2362 14.11048763590553
1 30600U 99025AMF 18205.51360799 +.00000561 +00000-0 +30928-3 0  9997
2 30600 098.3660 047.7923 0451697 068.2464 296.6125 13.72973403571875
1 30602U 99025AMH 18205.52885564 +.00000902 +00000-0 +41621-3 0  9993
2 30602 099.0421 308.1651 0035793 118.2866 009.9839 14.23247586590881
1 30603U 99025AMJ 18205.26216965 +.00000054 +00000-0 +82121-4 0  9997
2 30603 098.4691 123.0789 0196819 327.6881 184.7027 13.76586176577615
1 30604U 99025AMK 18204.42893610 +.00000143 +00000-0 +71744-4 0  9991
2 30604 098.7179 281.2700 0218880 269.6964 148.7373 14.19560805595859
1 30606U 99025AMM 18205.38081110 +.00000255 +00000-0 +61974-4 0  9991
2 30606 098.3769 258.1915 0258748 097.5092 325.2336 14.42591840602354
1 30607U 99025AMN 18204.11168930 +.00001036 +00000-0 +40903-3 0  9994
2 30607 098.9146 269.4286 0048432 093.8315 266.8406 14.30621020591413
1 30609U 99025AMQ 18205.15871140 +.00000261 +00000-0 +20408-3 0  9992
2 30609 098.5440 266.4227 0148010 049.0083 312.3773 13.94860316580546
1 30611U 99025AMS 18204.62192643 +.00001671 +00000-0 +79039-4 0  9991
2 30611 098.6380 186.5269 0176995 251.8886 106.2993 15.08537572618243
1 30612U 99025AMT 18205.53850286 +.00000594 +00000-0 +13242-3 0  9993
2 30612 099.1335 217.4627 0116521 006.6266 144.4647 14.57226478607745
1 30613U 99025AMU 18205.42925210 +.00000915 +00000-0 +21080-3 0  9998
2 30613 098.5171 269.4409 0222496 209.0204 149.8468 14.43874884601684
